norad_id,name,regime,epoch,line1,line2,inclination,eccentricity,mean_motion,raan,arg_pericenter,mean_anomaly
36395,SDO,IGO,16320.03590882,1 36395U 10005A   16320.03590882 -.00000031 +00000-0 +00000-0 0 0001\,2 36395 028.5369 144.2862 0001727 137.9506 043.6620 01.0027291102495,28.5369,0.0001727,1.00272911,144.2862,137.9506,43.662
36395,SDO,IGO,16321.52044157,1 36395U 10005A   16321.52044157 -.00000040  00000-0  00000+0 0  4183\,2 36395  28.5385 144.2595 0001749 138.6015 218.9356  1.00272836 24935,28.5385,0.0001749,1.00272836,144.2595,138.6015,218.9356
36395,SDO,IGO,16322.48905512,1 36395U 10005A   16322.48905512 -.00000045 +00000-0 +00000-0 0 0001\,2 36395 028.5395 144.2420 0001765 138.9084 208.3032 01.0027278702497,28.5395,0.0001765,1.00272787,144.242,138.9084,208.3032
36395,SDO,IGO,16323.30196977,1 36395U 10005A   16323.30196977 -.00000047 +00000-0 +00000-0 0 0421\,2 36395 028.5403 144.2274 0001790 139.3438 141.3340 01.0027274602495,28.5403,0.000179,1.00272746,144.2274,139.3438,141.334
36395,SDO,IGO,16324.31156961,1 36395U 10005A   16324.31156961 -.00000048 +00000-0 +00000-0 0 0422\,2 36395 028.5414 144.2091 0001808 139.6395 145.5085 01.0027269402496,28.5414,0.0001808,1.00272694,144.2091,139.6395,145.5085
36395,SDO,IGO,16325.54304462,1 36395U 10005A   16325.54304462 -.00000045  00000-0  00000+0 0  4238\,2 36395  28.5427 144.1869 0001839 140.2299 229.4860  1.00272628 24989,28.5427,0.0001839,1.00272628,144.1869,140.2299,229.486
36395,SDO,IGO,16326.22806078,1 36395U 10005A   16326.22806078 -.00000041 +00000-0 +00000-0 0 0001\,2 36395 028.5434 144.1745 0001850 140.5618 116.4479 01.0027259302501,28.5434,0.000185,1.00272593,144.1745,140.5618,116.4479
36395,SDO,IGO,16327.02827204,1 36395U 10005A   16327.02827204 -.00000037  00000-0  00000+0 0  4249\,2 36395  28.5443 144.1599 0001860 140.7739  45.1152  1.00272550 24997,28.5443,0.000186,1.0027255,144.1599,140.7739,45.1152
36395,SDO,IGO,16328.64415288,1 36395U 10005A   16328.64415288 -.00000028  00000-0  00000+0 0  4254\,2 36395  28.5460 144.1304 0001872 140.7427 268.4856  1.00272465 25017,28.546,0.0001872,1.00272465,144.1304,140.7427,268.4856
36395,SDO,IGO,16331.50327876,1 36395U 10005A   16331.50327876 -.00000018  00000-0  00000+0 0  4268\,2 36395  28.5492 144.0781 0001889 140.1951 221.1870  1.00272314 25042,28.5492,0.0001889,1.00272314,144.0781,140.1951,221.187
36395,SDO,IGO,16333.04564080,1 36395U 10005A   16333.04564080 -.00000019  00000-0  00000+0 0  4271\,2 36395  28.5509 144.0499 0001906 140.1797  57.9992  1.00272236 25059,28.5509,0.0001906,1.00272236,144.0499,140.1797,57.9992
36395,SDO,IGO,16333.27736322,1 36395U 10005A   16333.27736322 -.00000019 +00000-0 +00000-0 0 0001\,2 36395 028.5512 144.0456 0001898 140.0034 141.8279 01.0027222402508,28.5512,0.0001898,1.00272224,144.0456,140.0034,141.8279
36395,SDO,IGO,16334.99245189,1 36395U 10005A   16334.99245189 -.00000023  00000-0  00000+0 0  4288\,2 36395  28.5531 144.0143 0001905 139.7500  41.2322  1.00272139 25072,28.5531,0.0001905,1.00272139,144.0143,139.75,41.2322
36395,SDO,IGO,16335.28462061,1 36395U 10005A   16335.28462061 -.00000024 +00000-0 +00000-0 0 0001\,2 36395 028.5535 144.0089 0001900 139.8790 146.5768 01.0027212402510,28.5535,0.00019,1.00272124,144.0089,139.879,146.5768
36395,SDO,IGO,16336.14786256,1 36395U 10005A   16336.14786256 -.00000026  00000-0  00000+0 0  4296\,2 36395  28.5543 143.9932 0001895 139.9477  98.1403  1.00272081 25080,28.5543,0.0001895,1.00272081,143.9932,139.9477,98.1403
36395,SDO,IGO,16337.58963848,1 36395U 10005A   16337.58963848 -.00000029  00000-0  00000+0 0  4304\,2 36395  28.5559 143.9668 0001875 139.7209 258.8510  1.00272011 25102,28.5559,0.0001875,1.00272011,143.9668,139.7209,258.851
36395,SDO,IGO,16339.27911900,1 36395U 10005A   16339.27911900 -.00000029  00000-0  00000+0 0  4315\,2 36395  28.5569 143.9350 0001794 137.1905 151.3002  1.00272298 25117,28.5569,0.0001794,1.00272298,143.935,137.1905,151.3002
36395,SDO,IGO,16342.46210749,1 36395U 10005A   16342.46210749 -.00000022  00000-0  00000+0 0  4327\,2 36395  28.5613 143.8784 0001847 140.5400 217.0013  1.00271766 25148,28.5613,0.0001847,1.00271766,143.8784,140.54,217.0013
36395,SDO,IGO,16346.52468831,1 36395U 10005A   16346.52468831 -.00000029  00000-0  00000+0 0  4333\,2 36395  28.5657 143.8055 0001843 142.9431 241.1940  1.00271563 25190,28.5657,0.0001843,1.00271563,143.8055,142.9431,241.194
36395,SDO,IGO,16347.45407865,1 36395U 10005A   16347.45407865 -.00000035 +00000-0 +00000-0 0 0001\,2 36395 028.5667 143.7889 0001845 143.2153 216.4321 01.0027151402522,28.5667,0.0001845,1.00271514,143.7889,143.2153,216.4321
36395,SDO,IGO,16349.25841985,1 36395U 10005A   16349.25841985 -.00000047  00000-0  00000+0 0  4342\,2 36395  28.5687 143.7567 0001862 144.2423 146.7726  1.00271420 25214,28.5687,0.0001862,1.0027142,143.7567,144.2423,146.7726
36395,SDO,IGO,16350.24600015,1 36395U 10005A   16350.24600015 -.00000052 +00000-0 +00000-0 0 0001\,2 36395 028.5697 143.7390 0001870 144.3878 143.1436 01.0027137102525,28.5697,0.000187,1.00271371,143.739,144.3878,143.1436
36395,SDO,IGO,16351.52855880,1 36395U 10005A   16351.52855880 -.00000056  00000-0  00000+0 0  4355\,2 36395  28.5710 143.7161 0001891 145.3189 245.2155  1.00271301 25246,28.571,0.0001891,1.00271301,143.7161,145.3189,245.2155
36395,SDO,IGO,16352.47792072,1 36395U 10005A   16352.47792072 -.00000055 +00000-0 +00000-0 0 0001\,2 36395 028.5720 143.6991 0001904 145.4770 227.7765 01.0027125102528,28.572,0.0001904,1.00271251,143.6991,145.477,227.7765
36395,SDO,IGO,16353.17071610,1 36395U 10005A   16353.17071610 -.00000053  00000-0  00000+0 0  4367\,2 36395  28.5727 143.6866 0001910 145.8950 117.4569  1.00271215 25252,28.5727,0.000191,1.00271215,143.6866,145.895,117.4569
36395,SDO,IGO,16354.43182675,1 36395U 10005A   16354.43182675 -.00000047  00000-0  00000+0 0  4375\,2 36395  28.5740 143.6639 0001921 146.7526 211.8589  1.00271147 25262,28.574,0.0001921,1.00271147,143.6639,146.7526,211.8589
36395,SDO,IGO,16356.28976421,1 36395U 10005A   16356.28976421 -.00000039  00000-0  00000+0 0  4382\,2 36395  28.5760 143.6303 0001918 147.0805 162.2438  1.00271048 25286,28.576,0.0001918,1.00271048,143.6303,147.0805,162.2438
36395,SDO,IGO,16357.47718918,1 36395U 10005A   16357.47718918 -.00000035  00000-0  00000+0 0  4396\,2 36395  28.5773 143.6087 0001917 146.6530 231.3297  1.00270987 25303,28.5773,0.0001917,1.00270987,143.6087,146.653,231.3297
36395,SDO,IGO,16359.21770749,1 36395U 10005A   16359.21770749 -.00000034  00000-0  00000+0 0  4401\,2 36395  28.5792 143.5771 0001913 146.7583 139.5478  1.00270898 25310,28.5792,0.0001913,1.00270898,143.5771,146.7583,139.5478
36395,SDO,IGO,16359.52202391,1 36395U 10005A   16359.52202391 -.00000034 +00000-0 +00000-0 0 0001\,2 36395 028.5796 143.5716 0001920 147.5479 248.6154 01.0027087902535,28.5796,0.000192,1.00270879,143.5716,147.5479,248.6154
36395,SDO,IGO,16361.16070278,1 36395U 10005A   16361.16070278 -.00000038  00000-0  00000+0 0  4413\,2 36395  28.5814 143.5418 0001914 148.0708 119.6512  1.00270796 25335,28.5814,0.0001914,1.00270796,143.5418,148.0708,119.6512
36395,SDO,IGO,16362.60713522,1 36395U 10005A   16362.60713522 -.00000042  00000-0  00000+0 0  4425\,2 36395  28.5829 143.5155 0001903 146.7904 283.0898  1.00270730 25353,28.5829,0.0001903,1.0027073,143.5155,146.7904,283.0898
36395,SDO,IGO,16363.41781644,1 36395U 10005A   16363.41781644 -.00000045 +00000-0 +00000-0 0 0001\,2 36395 028.5838 143.5008 0001888 146.6278 215.9059 01.0027068902539,28.5838,0.0001888,1.00270689,143.5008,146.6278,215.9059
36395,SDO,IGO,16364.36448519,1 36395U 10005A   16364.36448519 -.00000047  00000-0  00000+0 0  4437\,2 36395  28.5848 143.4835 0001875 147.1649 197.1133  1.00270643 25368,28.5848,0.0001875,1.00270643,143.4835,147.1649,197.1133
36395,SDO,IGO,16365.33178602,1 36395U 10005A   16365.33178602 -.00000049 +00000-0 +00000-0 0 0001\,2 36395 028.5858 143.4660 0001856 147.5102 185.9604 01.0027059602540,28.5858,0.0001856,1.00270596,143.466,147.5102,185.9604
36395,SDO,IGO,17001.40377160,1 36395U 10005A   17001.40377160 -.00000049  00000-0  00000+0 0  4447\,2 36395  28.5880 143.4285 0001830 147.9689 213.4858  1.00270492 25409,28.588,0.000183,1.00270492,143.4285,147.9689,213.4858
36395,SDO,IGO,17003.12360914,1 36395U 10005A   17003.12360914 -.00000046  00000-0  00000+0 0  4455\,2 36395  28.5898 143.3975 0001810 149.0010 113.3087  1.00270406 25410,28.5898,0.000181,1.00270406,143.3975,149.001,113.3087
36395,SDO,IGO,17003.49717994,1 36395U 10005A   17003.49717994 -.00000045 +00000-0 +00000-0 0 0001\,2 36395 028.5902 143.3908 0001809 149.0957 248.0718 01.0027039102545,28.5902,0.0001809,1.00270391,143.3908,149.0957,248.0718
36395,SDO,IGO,17006.43026473,1 36395U 10005A   17006.43026473 -.00000046  00000-0  00000+0 0  4462\,2 36395  28.5938 143.3404 0002193 147.3808 228.6193  1.00271539 25453,28.5938,0.0002193,1.00271539,143.3404,147.3808,228.6193
36395,SDO,IGO,17008.21914948,1 36395U 10005A   17008.21914948 -.00000056  00000-0  00000+0 0  4475\,2 36395  28.5956 143.3069 0002038 145.0620 156.7120  1.00269269 25464,28.5956,0.0002038,1.00269269,143.3069,145.062,156.712
36395,SDO,IGO,17009.17242772,1 36395U 10005A   17009.17242772 -.00000063 +00000-0 +00000-0 0 0001\,2 36395 028.5966 143.2891 0002022 145.0794 140.8207 01.0026921302550,28.5966,0.0002022,1.00269213,143.2891,145.0794,140.8207
36395,SDO,IGO,17010.37292640,1 36395U 10005A   17010.37292640 -.00000072  00000-0  00000+0 0  4482\,2 36395  28.5979 143.2665 0001983 145.3235 213.9470  1.00269186 25487,28.5979,0.0001983,1.00269186,143.2665,145.3235,213.947
36395,SDO,IGO,17012.42811309,1 36395U 10005A   17012.42811309 -.00000082  00000-0  00000+0 0  4491\,2 36395  28.6002 143.2282 0001900 141.8934 239.2848  1.00269285 25510,28.6002,0.00019,1.00269285,143.2282,141.8934,239.2848
36395,SDO,IGO,17013.42748171,1 36395U 10005A   17013.42748171 -.00000082 +00000-0 +00000-0 0 0001\,2 36395 028.6014 143.2097 0001850 141.7952 240.1475 01.0026931602555,28.6014,0.000185,1.00269316,143.2097,141.7952,240.1475
